NORAD_CAT_ID,OBJECT_NAME,OBJECT_TYPE,EPOCH,MEAN_MOTION,ECCENTRICITY,INCLINATION,RA_OF_ASC_NODE,ARG_OF_PERICENTER,MEAN_ANOMALY,BSTAR,MEAN_MOTION_DOT,MEAN_MOTION_DDOT,TLE_LINE0,TLE_LINE1,TLE_LINE2,SEMIMAJOR_AXIS,PERIOD,APOGEE,PERIGEE,DECAYED
51112.0,STARLINK-3374,PAYLOAD,2022-10-10 12:35:22,15.08837948,0.0001940999999999,53.2178,123.3872,45.0586,315.0564,4.0121e-05,3.5000000000000016e-06,0.0,0 STARLINK-3374,1 51112U 22005J   22283.52456485  .00000350  00000-0  40121-4 0  9995,2 51112  53.2178 123.3872 0001941  45.0586 315.0564 15.08837948 40750,6917.887,95.438,541.094,538.409,0.0
51112.0,STARLINK-3374,PAYLOAD,2022-10-10 20:32:18,15.08840178,0.0001899999999999,53.2189,121.9008,47.8314,312.2839,7.454300000000001e-05,8.98e-06,0.0,0 STARLINK-3374,1 51112U 22005J   22283.85576456  .00000898  00000-0  74543-4 0  9994,2 51112  53.2189 121.9008 0001900  47.8314 312.2839 15.08840178 41913,6917.88,95.438,541.059,538.43,0.0
51112.0,STARLINK-3374,PAYLOAD,2022-10-11 12:26:10,15.08829478,0.0001934,53.2189,118.9275,38.2764,321.8365,-1.7459e-05,-5.66e-06,0.0,0 STARLINK-3374,1 51112U 22005J   22284.51817642 -.00000566  00000-0 -17459-4 0  9990,2 51112  53.2189 118.9275 0001934  38.2764 321.8365 15.08829478 40903,6917.913000000001,95.438,541.115,538.44,0.0
51112.0,STARLINK-3374,PAYLOAD,2022-10-11 18:47:43,15.08824899,0.0001972,53.2189,117.7378,34.559,325.553,-8.352e-05,-1.617e-05,0.0,0 STARLINK-3374,1 51112U 22005J   22284.78314282 -.00001617  00000-0 -83520-4 0  9991,2 51112  53.2189 117.7378 0001972  34.5590 325.5530 15.08824899 42057,6917.927,95.439,541.156,538.427,0.0
51112.0,STARLINK-3374,PAYLOAD,2022-10-12 12:16:57,15.08847781,0.0002045999999999,53.2186,114.4657,39.3212,320.7928,-0.00021675,-3.737e-05,0.0,0 STARLINK-3374,1 51112U 22005J   22285.51177542 -.00003737  00000-0 -21675-3 0  9996,2 51112  53.2186 114.4657 0002046  39.3212 320.7928 15.08847781 41057,6917.857,95.437,541.137,538.306,0.0
51112.0,STARLINK-3374,PAYLOAD,2022-10-12 20:13:53,15.08836048,0.0001921999999999,53.2187,112.9794,40.4061,319.7073,5.3519e-05,5.64e-06,0.0,0 STARLINK-3374,1 51112U 22005J   22285.84297866  .00000564  00000-0  53519-4 0  9990,2 51112  53.2187 112.9794 0001922  40.4061 319.7073 15.08836048 41109,6917.892,95.438,541.087,538.428,0.0
51112.0,STARLINK-3374,PAYLOAD,2022-10-13 12:07:44,15.08837983,0.0001953,53.2186,110.0055,39.525,320.5885,0.00022121,3.234e-05,0.0,0 STARLINK-3374,1 51112U 22005J   22286.50537403  .00003234  00000-0  22121-3 0  9999,2 51112  53.2186 110.0055 0001953  39.5250 320.5885 15.08837983 41201,6917.887,95.438,541.1030000000002,538.4,0.0
51112.0,STARLINK-3374,PAYLOAD,2022-10-13 18:29:17,15.08837646,0.0001966,53.2188,108.816,40.1669,319.9468,0.0002055,2.984e-05,0.0,0 STARLINK-3374,1 51112U 22005J   22286.77033575  .00002984  00000-0  20550-3 0  9994,2 51112  53.2188 108.8160 0001966  40.1669 319.9468 15.08837646 41240,6917.888000000001,95.438,541.113,538.393,0.0
51112.0,STARLINK-3374,PAYLOAD,2022-10-14 11:58:31,15.08842908,0.0001837,53.2185,105.5454,36.4094,323.7023,0.00013761,1.903e-05,0.0,0 STARLINK-3374,1 51112U 22005J   22287.49897608  .00001903  00000-0  13761-3 0  9995,2 51112  53.2185 105.5454 0001837  36.4094 323.7023 15.08842908 41353,6917.871999999999,95.437,541.007,538.466,0.0
51112.0,STARLINK-3374,PAYLOAD,2022-10-14 18:20:04,15.08837515,0.0001848,53.2194,104.3555,35.8122,324.2994,7.0588e-05,8.35e-06,0.0,0 STARLINK-3374,1 51112U 22005J   22287.76394144  .00000835  00000-0  70588-4 0  9996,2 51112  53.2194 104.3555 0001848  35.8122 324.2994 15.08837515 42508,6917.888000000001,95.438,541.031,538.475,0.0
51112.0,STARLINK-3374,PAYLOAD,2022-10-15 11:49:18,15.08849108,0.0001908,53.2194,101.0847,35.6346,324.4774,6.6526e-05,7.71e-06,0.0,0 STARLINK-3374,1 51112U 22005J   22288.49257124  .00000771  00000-0  66526-4 0  9999,2 51112  53.2194 101.0847 0001908  35.6346 324.4774 15.08849108 41507,6917.853,95.437,541.0369999999998,538.398,0.0
51112.0,STARLINK-3374,PAYLOAD,2022-10-15 18:10:51,15.08839705,0.0001924,53.2192,99.8961,39.8033,320.31,3.5334e-06,-2.32e-06,0.0,0 STARLINK-3374,1 51112U 22005J   22288.75753720 -.00000232  00000-0  35334-5 0  9998,2 51112  53.2192  99.8961 0001924  39.8033 320.3100 15.08839705 42650,6917.880999999999,95.438,541.077,538.415,0.0
51112.0,STARLINK-3374,PAYLOAD,2022-10-16 11:40:05,15.08844206,0.0001906999999999,53.2194,96.6245,42.3036,317.8103,2.9728e-05,1.85e-06,0.0,0 STARLINK-3374,1 51112U 22005J   22289.48617201  .00000185  00000-0  29728-4 0  9997,2 51112  53.2194  96.6245 0001907  42.3036 317.8103 15.08844206 41650,6917.868,95.437,541.052,538.413,0.0
51112.0,STARLINK-3374,PAYLOAD,2022-10-16 18:01:38,15.08829665,0.0001851999999999,53.2185,95.4346,41.1537,318.9595,-7.0929e-06,-4.01e-06,0.0,0 STARLINK-3374,1 51112U 22005J   22289.75114266 -.00000401  00000-0 -70929-5 0  9993,2 51112  53.2185  95.4346 0001852  41.1537 318.9595 15.08829665 42808,6917.9119999999975,95.438,541.058,538.496,0.0
51112.0,STARLINK-3374,PAYLOAD,2022-10-17 11:30:52,15.08843421,0.0001921,53.2184,92.1632,43.6304,316.4840000000001,-1.9047e-05,-5.91e-06,0.0,0 STARLINK-3374,1 51112U 22005J   22290.47977609 -.00000591  00000-0 -19047-4 0  9995,2 51112  53.2184  92.1632 0001921  43.6304 316.4840 15.08843421 42919,6917.87,95.437,541.064,538.406,0.0
51112.0,STARLINK-3374,PAYLOAD,2022-10-17 19:27:48,15.08847695,0.0002041,53.2181,90.6765,41.1821,318.9324,2.4851e-05,1.07e-06,0.0,0 STARLINK-3374,1 51112U 22005J   22290.81097226  .00000107  00000-0  24851-4 0  9991,2 51112  53.2181  90.6765 0002041  41.1821 318.9324 15.08847695 41850,6917.857,95.437,541.134,538.31,0.0
51112.0,STARLINK-3374,PAYLOAD,2022-10-18 09:46:16,15.08838561,0.0002210999999999,53.2178,88.0021,36.2718,323.8423,8.595e-05,1.0800000000000003e-05,0.0,0 STARLINK-3374,1 51112U 22005J   22291.40713762  .00001080  00000-0  85950-4 0  9995,2 51112  53.2178  88.0021 0002211  36.2718 323.8423 15.08838561 41948,6917.885,95.438,541.279,538.22,0.0
51112.0,STARLINK-3374,PAYLOAD,2022-10-18 17:43:12,15.08839164,0.0002171999999999,53.2179,86.515,36.1804,323.9335,8.882200000000001e-05,1.126e-05,0.0,0 STARLINK-3374,1 51112U 22005J   22291.73833843  .00001126  00000-0  88822-4 0  9996,2 51112  53.2179  86.5150 0002172  36.1804 323.9335 15.08839164 43109,6917.8830000000025,95.438,541.251,538.245,0.0
51112.0,STARLINK-3374,PAYLOAD,2022-10-19 09:37:03,15.08843745,0.0002230999999999,53.2181,83.5413,44.14,315.9770000000001,8.833200000000001e-05,1.118e-05,0.0,0 STARLINK-3374,1 51112U 22005J   22292.40073695  .00001118  00000-0  88332-4 0  9999,2 51112  53.2181  83.5413 0002231  44.1400 315.9770 15.08843745 42099,6917.869000000002,95.437,541.2769999999998,538.191,0.0
51112.0,STARLINK-3374,PAYLOAD,2022-10-20 19:00:09,15.08839032,0.0002213,53.2176,77.2956,38.5843,321.5307,6.6173e-05,7.65e-06,0.0,0 STARLINK-3374,1 51112U 22005J   22293.79177880  .00000765  00000-0  66173-4 0  9999,2 51112  53.2176  77.2956 0002213  38.5843 321.5307 15.08839032 42300,6917.8830000000025,95.438,541.279,538.217,0.0
51112.0,STARLINK-3374,PAYLOAD,2022-10-21 10:54:00,15.08844004,0.0002262,53.2177,74.3222,39.1991,320.9165,6.9315e-05,8.15e-06,0.0,0 STARLINK-3374,1 51112U 22005J   22294.45417475  .00000815  00000-0  69315-4 0  9997,2 51112  53.2177  74.3222 0002262  39.1991 320.9165 15.08844004 42401,6917.868,95.437,541.298,538.168,0.0
51112.0,STARLINK-3374,PAYLOAD,2022-10-21 17:15:33,15.08844173,0.0002327,53.2177,73.133,37.1854,322.9299,8.678700000000001e-05,1.093e-05,0.0,0 STARLINK-3374,1 51112U 22005J   22294.71913385  .00001093  00000-0  86787-4 0  9998,2 51112  53.2177  73.1330 0002327  37.1854 322.9299 15.08844173 42447,6917.868,95.437,541.342,538.123,0.0
51112.0,STARLINK-3374,PAYLOAD,2022-10-22 04:23:15,15.08836081,0.0002269,53.218,71.0516,38.556,321.5594,8.4959e-05,1.064e-05,0.0,0 STARLINK-3374,1 51112U 22005J   22295.18281947  .00001064  00000-0  84959-4 0  9999,2 51112  53.2180  71.0516 0002269  38.5560 321.5594 15.08836081 43621,6917.892,95.438,541.327,538.188,0.0
51112.0,STARLINK-3374,PAYLOAD,2022-10-22 12:20:10,15.08841914,0.0002256999999999,53.218,69.5647,38.7521,321.3632,0.00014588,2.034e-05,0.0,0 STARLINK-3374,1 51112U 22005J   22295.51401611  .00002034  00000-0  14588-3 0  9996,2 51112  53.2180  69.5647 0002257  38.7521 321.3632 15.08841914 42568,6917.875,95.437,541.3009999999998,538.178,0.0
51112.0,STARLINK-3374,PAYLOAD,2022-10-22 20:17:06,15.08848305,0.0002363,53.217,68.0776,39.135,320.9813,0.00028067,4.182e-05,0.0,0 STARLINK-3374,1 51112U 22005J   22295.84521575  .00004182  00000-0  28067-3 0  9997,2 51112  53.2170  68.0776 0002363  39.1350 320.9813 15.08848305 43723,6917.855,95.437,541.355,538.085,0.0
51112.0,STARLINK-3374,PAYLOAD,2022-10-23 12:10:57,15.088526500000002,0.0002346999999999,53.217,65.1038,37.7502,322.3654,0.00028312,4.222e-05,0.0,0 STARLINK-3374,1 51112U 22005J   22296.50761247  .00004222  00000-0  28312-3 0  9991,2 51112  53.2170  65.1038 0002347  37.7502 322.3654 15.08852650 42712,6917.842,95.437,541.33,538.0830000000002,0.0
51112.0,STARLINK-3374,PAYLOAD,2022-10-23 20:07:53,15.08848431,0.0002353,53.2172,63.6172,36.9282,323.1872,0.00017519,2.502e-05,0.0,0 STARLINK-3374,1 51112U 22005J   22296.83881271  .00002502  00000-0  17519-3 0  9993,2 51112  53.2172  63.6172 0002353  36.9282 323.1872 15.08848431 43870,6917.855,95.437,541.347,538.092,0.0
51112.0,STARLINK-3374,PAYLOAD,2022-10-24 12:01:45,15.08828079,0.0002174,53.2174,60.6432,32.6232,327.4894,-0.00029977,-5.055e-05,0.0,0 STARLINK-3374,1 51112U 22005J   22297.50121759 -.00005055  00000-0 -29977-3 0  9995,2 51112  53.2174  60.6432 0002174  32.6232 327.4894 15.08828079 43975,6917.917,95.438,541.286,538.278,0.0
51112.0,STARLINK-3374,PAYLOAD,2022-10-24 19:58:41,15.08824959,0.0002233,53.2176,59.157,32.7272,327.3858,-0.00015552,-2.762e-05,0.0,0 STARLINK-3374,1 51112U 22005J   22297.83242481 -.00002762  00000-0 -15552-3 0  9993,2 51112  53.2176  59.1570 0002233  32.7272 327.3858 15.08824959 42919,6917.926,95.439,541.336,538.247,0.0
